STARLINK-32451          
1 61857U 24202N   26067.55041006  .00001201  00000+0  53177-4 0  9999
2 61857  43.0033 244.4046 0001791 276.2147  83.8500 15.27578742 75164
FLOCK 4G-5              
1 62663U 25009BG  26068.45638436  .00011278  00000+0  40688-3 0  9997
2 62663  97.4058 151.2478 0002094 314.5072  45.5996 15.28679529 63699
